CUTE-1 (CO-55)          
1 27844U 03031E   26188.47926414  .00000234  00000+0  12008-3 0  9996
2 27844  98.6738 196.7829 0010633 122.6531 237.5676 14.24348198194568
CUBESAT XI-IV (CO-57)   
1 27848U 03031J   26188.47791579  .00000195  00000+0  10456-3 0  9993
2 27848  98.6771 196.4779 0010210 139.6848 220.5090 14.23631593194262
CUBESAT XI-V            
1 28895U 05043F   26187.90288029  .00001301  00000+0  21205-3 0  9993
2 28895  98.3006 343.9413 0014933 139.5987 220.6332 14.72686848104657
CUTE-1.7+APD II (CO-65) 
1 32785U 08021C   26188.79755797  .00002899  00000+0  18422-3 0  9994
2 32785  97.8287 170.6484 0007526 329.8758  30.2036 15.09655904988306
CANX-2                  
1 32790U 08021H   26188.42445313  .00003309  00000+0  23274-3 0  9998
2 32790  97.8649 168.5977 0009591 344.8002  15.2934 15.05770134987858
SEEDS II (CO-66)        
1 32791U 08021J   26187.97759589  .00013488  00000+0  41928-3 0  9996
2 32791  97.7526 186.8299 0002094 175.3299 184.7963 15.33467667990323
SWISSCUBE               
1 35932U 09051B   26188.69362618  .00000823  00000+0  17197-3 0  9993
2 35932  98.4017  96.9380 0007441 139.4593 220.7163 14.62521314892153
BEESAT-1                
1 35933U 09051C   26188.71376992  .00000676  00000+0  14545-3 0  9997
2 35933  98.3945  96.5507 0005671 149.9217 210.2310 14.61753962892188
ITUPSAT1                
1 35935U 09051E   26188.72265193  .00000618  00000+0  13755-3 0  9998
2 35935  98.4027  95.7297 0007547 164.8857 195.2569 14.60471459891734
TISAT 1                 
1 36799U 10035E   26188.29850555  .00016855  00000+0  53881-3 0  9999
2 36799  98.0714 136.6429 0004078 127.2476 232.9136 15.32521446870783
AEROCUBE 4.5A           
1 38767U 12048K   26182.35755624  .04452536  75888-5  12090-2 0  9996
2 38767  64.6119 334.1912 0018036 274.2275  85.6841 16.27240800374938
STRAND-1                
1 39090U 13009E   26188.45511461  .00000234  00000+0  93038-4 0  9991
2 39090  98.3931   8.1913 0008963 162.7350 197.4144 14.37175624699978
BRITE-AUSTRIA           
1 39091U 13009F   26188.75538072  .00000139  00000+0  61770-4 0  9994
2 39091  98.4005   7.6829 0010305 172.0296 188.1056 14.36550382700001
NEE-01 PEGASO           
1 39151U 13018B   26187.89325462  .00002680  00000+0  25827-3 0  9997
2 39151  98.1252 332.6981 0013984  99.0383 261.2419 14.93765912713640
POPACS 2                
1 39269U 13055E   26188.23662045  .00013687 -86834-6  22422-3 0  9992
2 39269  80.9913 121.2377 0415561 129.4242 234.4544 14.91798174666207
POPACS 3                
1 39270U 13055F   26188.04352827  .00008998  00000+0  21283-3 0  9993
2 39270  80.9994 207.6517 0549801   9.5415 351.5717 14.56515300641449
ZACUBE-1 (TSHEPISOSAT)  
1 39417U 13066B   26188.46989733  .00001831  00000+0  14444-3 0  9996
2 39417  97.8022 150.9081 0043509 179.9834 180.1399 15.01305441683776
WNISAT-1                
1 39423U 13066H   26188.38702878  .00001130  00000+0  21301-3 0  9999
2 39423  97.7226 336.1120 0163343 167.8025 192.7206 14.58107516669670
TRITON-1                
1 39427U 13066M   26188.82480270  .00000935  00000+0  11725-3 0  9992
2 39427  97.8221  98.1606 0089986 166.0494 194.3237 14.81776795677145
GOMX-1                  
1 39430U 13066Q   26188.81761498  .00001429  00000+0  21972-3 0  9993
2 39430  97.6476  27.9782 0128957  11.8892 348.5309 14.69531126672944
CUBEBUG-2 (LO-74)       
1 39440U 13066AA  26188.82765833  .00002170  00000+0  20347-3 0  9991
2 39440  97.8911 137.8959 0056222 320.5127  39.2002 14.93937818680076
NEE-02 KRYSAOR          
1 39441U 13066AB  26188.26625283  .00001902  00000+0  21194-3 0  9997
2 39441  97.8888 127.3388 0066148   5.3708 354.8202 14.86716549679187
FUNCUBE-1 (AO-73)       
1 39444U 13066AE  26187.87556615  .00006051  00000+0  37306-3 0  9990
2 39444  97.8282 159.7358 0037536 134.9216 225.5068 15.09744377682630
UWE-3                   
1 39446U 13066AG  26188.33361646  .00002099  00000+0  18297-3 0  9998
2 39446  97.8699 144.5465 0047497 252.0164 107.5878 14.97168353680597
BRITE-CA1 (TORONTO)     
1 40020U 14033L   26187.87747464  .00000913  00000+0  14459-3 0  9996
2 40020  97.9763 316.4452 0077848 213.0292 146.6041 14.72711123645115
DUCHIFAT-1              
1 40021U 14033M   26188.71429161  .00106366  00000+0  89743-3 0  9999
2 40021  98.0443 250.8323 0001383 276.1488  83.9614 15.69460048658969
NANOSATC-BR1            
1 40024U 14033Q   26188.32554562  .00012288  00000+0  39840-3 0  9995
2 40024  98.0715 222.5062 0005269 115.7199 244.4585 15.32146748657063
QB50P1                  
1 40025U 14033R   26187.98593056  .00006736  00000+0  32910-3 0  9990
2 40025  98.0969 200.5237 0009775 149.2946 210.8860 15.18579991656036
QB50P2                  
1 40032U 14033Y   26188.43900351  .00004406  00000+0  23683-3 0  9998
2 40032  98.0762 186.5837 0009352 105.2659 254.9607 15.15438659655734
PERSEUS-M2              
1 40037U 14033AD  26188.80419964  .00001225  00000+0  11583-3 0  9991
2 40037  97.9966 139.7654 0010674 226.5955 133.4378 14.95570854653864
